{
  "type": "FeatureCollection",
  "features": [
    {
      "type": "Feature",
      "properties": {
        "norad_id": 34962,
        "name": "COSMOS 2251 DEB",
        "group": "cosmos-2251-debris",
        "lat": -61.61240125998318,
        "lon": 52.54340719056107,
        "alt_km": 738.7696096591499,
        "timestamp": "2025-12-08T21:31:05.062037+00:00",
        "meta_object_name": "COSMOS 2251 DEB",
        "meta_object_id": "1993-036AER",
        "meta_epoch": "2025-12-08T00:27:49.418208",
        "meta_mean_motion": 14.46495653,
        "meta_eccentricity": 0.0018762,
        "meta_inclination": 74.0294,
        "meta_ra_of_asc_node": 202.1816,
        "meta_arg_of_pericenter": 315.4302,
        "meta_mean_anomaly": 44.5347,
        "meta_ephemeris_type": 0,
        "meta_classification_type": "U",
        "meta_norad_cat_id": 34962,
        "meta_element_set_no": 999,
        "meta_rev_at_epoch": 87510,
        "meta_bstar": 0.00059226068,
        "meta_mean_motion_dot": 2.11e-05,
        "meta_mean_motion_ddot": 0,
        "tle_line1": "1 34962U 93036AER 25342.01932197  .00002110  00000+0  59226-3 0  9993",
        "tle_line2": "2 34962  74.0294 202.1816 0018762 315.4302  44.5347 14.46495653875109"
      },
      "geometry": {
        "type": "Point",
        "coordinates": [
          52.54340719056107,
          -61.61240125998318
        ]
      }
    },
    {
      "type": "Feature",
      "properties": {
        "norad_id": 34963,
        "name": "COSMOS 2251 DEB",
        "group": "cosmos-2251-debris",
        "lat": 72.16902078105281,
        "lon": 111.7928838546136,
        "alt_km": 744.2862522793084,
        "timestamp": "2025-12-08T21:31:05.062046+00:00",
        "meta_object_name": "COSMOS 2251 DEB",
        "meta_object_id": "1993-036AES",
        "meta_epoch": "2025-12-08T12:52:00.806016",
        "meta_mean_motion": 14.51014391,
        "meta_eccentricity": 0.00425972,
        "meta_inclination": 74.1718,
        "meta_ra_of_asc_node": 50.5866,
        "meta_arg_of_pericenter": 247.8405,
        "meta_mean_anomaly": 111.8233,
        "meta_ephemeris_type": 0,
        "meta_classification_type": "U",
        "meta_norad_cat_id": 34963,
        "meta_element_set_no": 999,
        "meta_rev_at_epoch": 86740,
        "meta_bstar": 0.0019565203,
        "meta_mean_motion_dot": 7.813e-05,
        "meta_mean_motion_ddot": 0,
        "tle_line1": "1 34963U 93036AES 25342.53612044  .00007813  00000+0  19565-2 0  9993",
        "tle_line2": "2 34963  74.1718  50.5866 0042597 247.8405 111.8233 14.51014391867405"
      },
      "geometry": {
        "type": "Point",
        "coordinates": [
          111.7928838546136,
          72.16902078105281
        ]
      }
    },
    {
      "type": "Feature",
      "properties": {
        "norad_id": 34964,
        "name": "COSMOS 2251 DEB",
        "group": "cosmos-2251-debris",
        "lat": 69.2045879140063,
        "lon": 43.72453246841617,
        "alt_km": 996.6352144238645,
        "timestamp": "2025-12-08T21:31:05.062056+00:00",
        "meta_object_name": "COSMOS 2251 DEB",
        "meta_object_id": "1993-036AET",
        "meta_epoch": "2025-12-06T09:08:23.227296",
        "meta_mean_motion": 14.00561346,
        "meta_eccentricity": 0.02131727,
        "meta_inclination": 73.9719,
        "meta_ra_of_asc_node": 358.9078,
        "meta_arg_of_pericenter": 218.6047,
        "meta_mean_anomaly": 139.9683,
        "meta_ephemeris_type": 0,
        "meta_classification_type": "U",
        "meta_norad_cat_id": 34964,
        "meta_element_set_no": 999,
        "meta_rev_at_epoch": 84389,
        "meta_bstar": 0.0026176283,
        "meta_mean_motion_dot": 4.714e-05,
        "meta_mean_motion_ddot": 0,
        "tle_line1": "1 34964U 93036AET 25340.38082439  .00004714  00000+0  26176-2 0  9997",
        "tle_line2": "2 34964  73.9719 358.9078 0213172 218.6047 139.9683 14.00561346843899"
      },
      "geometry": {
        "type": "Point",
        "coordinates": [
          43.72453246841617,
          69.2045879140063
        ]
      }
    },
    {
      "type": "Feature",
      "properties": {
        "norad_id": 34965,
        "name": "COSMOS 2251 DEB",
        "group": "cosmos-2251-debris",
        "lat": -22.20920637521098,
        "lon": -37.631777979162344,
        "alt_km": 725.506711446883,
        "timestamp": "2025-12-08T21:31:05.062066+00:00",
        "meta_object_name": "COSMOS 2251 DEB",
        "meta_object_id": "1993-036AEU",
        "meta_epoch": "2025-12-06T10:34:26.785056",
        "meta_mean_motion": 14.48681639,
        "meta_eccentricity": 0.00265723,
        "meta_inclination": 74.0502,
        "meta_ra_of_asc_node": 140.2593,
        "meta_arg_of_pericenter": 268.4529,
        "meta_mean_anomaly": 91.3587,
        "meta_ephemeris_type": 0,
        "meta_classification_type": "U",
        "meta_norad_cat_id": 34965,
        "meta_element_set_no": 999,
        "meta_rev_at_epoch": 87022,
        "meta_bstar": 0.00064326633,
        "meta_mean_motion_dot": 2.407e-05,
        "meta_mean_motion_ddot": 0,
        "tle_line1": "1 34965U 93036AEU 25340.44058779  .00002407  00000+0  64327-3 0  9993",
        "tle_line2": "2 34965  74.0502 140.2593 0026572 268.4529  91.3587 14.48681639870221"
      },
      "geometry": {
        "type": "Point",
        "coordinates": [
          -37.631777979162344,
          -22.20920637521098
        ]
      }
    },
    {
      "type": "Feature",
      "properties": {
        "norad_id": 34967,
        "name": "COSMOS 2251 DEB",
        "group": "cosmos-2251-debris",
        "lat": 3.9633815113751463,
        "lon": 79.88808334644696,
        "alt_km": 762.9575008950769,
        "timestamp": "2025-12-08T21:31:05.062076+00:00",
        "meta_object_name": "COSMOS 2251 DEB",
        "meta_object_id": "1993-036AEW",
        "meta_epoch": "2025-12-08T12:23:52.051488",
        "meta_mean_motion": 14.44233301,
        "meta_eccentricity": 0.00377997,
        "meta_inclination": 73.9938,
        "meta_ra_of_asc_node": 261.7362,
        "meta_arg_of_pericenter": 49.0398,
        "meta_mean_anomaly": 311.4019,
        "meta_ephemeris_type": 0,
        "meta_classification_type": "U",
        "meta_norad_cat_id": 34967,
        "meta_element_set_no": 999,
        "meta_rev_at_epoch": 64896,
        "meta_bstar": 0.0012271182,
        "meta_mean_motion_dot": 4.227e-05,
        "meta_mean_motion_ddot": 0,
        "tle_line1": "1 34967U 93036AEW 25342.51657467  .00004227  00000+0  12271-2 0  9996",
        "tle_line2": "2 34967  73.9938 261.7362 0037799  49.0398 311.4019 14.44233301648962"
      },
      "geometry": {
        "type": "Point",
        "coordinates": [
          79.88808334644696,
          3.9633815113751463
        ]
      }
    },
    {
      "type": "Feature",
      "properties": {
        "norad_id": 34968,
        "name": "COSMOS 2251 DEB",
        "group": "cosmos-2251-debris",
        "lat": -1.8724181607469834,
        "lon": 74.93113158196655,
        "alt_km": 757.3078938849276,
        "timestamp": "2025-12-08T21:31:05.062087+00:00",
        "meta_object_name": "COSMOS 2251 DEB",
        "meta_object_id": "1993-036AEX",
        "meta_epoch": "2025-12-08T00:56:51.838368",
        "meta_mean_motion": 14.59392233,
        "meta_eccentricity": 0.00863684,
        "meta_inclination": 74.0389,
        "meta_ra_of_asc_node": 256.0282,
        "meta_arg_of_pericenter": 17.5095,
        "meta_mean_anomaly": 342.9015,
        "meta_ephemeris_type": 0,
        "meta_classification_type": "U",
        "meta_norad_cat_id": 34968,
        "meta_element_set_no": 999,
        "meta_rev_at_epoch": 88409,
        "meta_bstar": 0.0003041987,
        "meta_mean_motion_dot": 1.486e-05,
        "meta_mean_motion_ddot": 0,
        "tle_line1": "1 34968U 93036AEX 25342.03948887  .00001486  00000+0  30420-3 0  9994",
        "tle_line2": "2 34968  74.0389 256.0282 0086368  17.5095 342.9015 14.59392233884090"
      },
      "geometry": {
        "type": "Point",
        "coordinates": [
          74.93113158196655,
          -1.8724181607469834
        ]
      }
    },
    {
      "type": "Feature",
      "properties": {
        "norad_id": 34969,
        "name": "COSMOS 2251 DEB",
        "group": "cosmos-2251-debris",
        "lat": -65.99698119691418,
        "lon": -9.905028034831922,
        "alt_km": 820.3079240301313,
        "timestamp": "2025-12-08T21:31:05.062124+00:00",
        "meta_object_name": "COSMOS 2251 DEB",
        "meta_object_id": "1993-036AEY",
        "meta_epoch": "2025-12-08T11:47:57.157728",
        "meta_mean_motion": 14.3224671,
        "meta_eccentricity": 0.00738736,
        "meta_inclination": 74.0147,
        "meta_ra_of_asc_node": 30.9059,
        "meta_arg_of_pericenter": 165.1683,
        "meta_mean_anomaly": 195.166,
        "meta_ephemeris_type": 0,
        "meta_classification_type": "U",
        "meta_norad_cat_id": 34969,
        "meta_element_set_no": 999,
        "meta_rev_at_epoch": 65076,
        "meta_bstar": 0.00053409648,
        "meta_mean_motion_dot": 1.459e-05,
        "meta_mean_motion_ddot": 0,
        "tle_line1": "1 34969U 93036AEY 25342.49163377  .00001459  00000+0  53410-3 0  9992",
        "tle_line2": "2 34969  74.0147  30.9059 0073873 165.1683 195.1660 14.32246710650762"
      },
      "geometry": {
        "type": "Point",
        "coordinates": [
          -9.905028034831922,
          -65.99698119691418
        ]
      }
    }
  ]
}